STARLINK-30318          
1 57711U 23129P   26060.50003471  .01189978  00000+0  41908-1 0  9997
2 57711  43.0008 163.7752 0001691 304.3312  82.6641 15.25816273  5813
STARLINK-30348          
1 57712U 23129Q   26060.50003471  .00621790  00000+0  27825-1 0  9992
2 57712  43.0018 163.9245 0001189 284.4225  44.5441 15.18479559  5816
STARLINK-30349          
1 57713U 23129R   26060.50003471  .01084306  00000+0  48346-1 0  9991
2 57713  43.0005 163.9652 0001592 265.7084  44.8698 15.18032464  5815
STARLINK-30341          
1 57714U 23129S   26060.27636683  .00000768  00000+0  70515-4 0  9998
2 57714  43.0026 165.5954 0001624 275.8438  84.2219 15.03358561139394
STARLINK-30300          
1 57715U 23129T   26060.50003471  .01085111  00000+0  46616-1 0  9996
2 57715  43.0007 163.9772 0001802 271.0847  35.0845 15.19323371  5764
STARLINK-30281          
1 57716U 23129U   26060.50003471  .01140120  00000+0  53498-1 0  9995
2 57716  43.0005 164.0357 0001580 257.3279  23.1831 15.16095681  5729
STARLINK-30325          
1 57717U 23129V   26060.50003471  .01269007  00000+0  55081-1 0  9992
2 57717  42.9996 164.0802 0001970 244.6617  15.9902 15.18983041  5816
STARLINK-30338          
1 57718U 23129W   26060.50003471  .01262482  00000+0  58155-1 0  9998
2 57718  42.9996 164.0722 0001266 259.9959   3.5671 15.16919641  5778
STARLINK-30334          
1 57719U 23129X   26060.50003471  .00058776  00000+0  28625-2 0  9997
2 57719  43.0007 163.9282 0001666 246.2581  77.1787 15.17552679  5722
STARLINK-30375          
1 57732U 23131A   26060.50003471  .02070473  00000+0  95060-1 0  9991
2 57732  42.9999 203.3817 0001418 279.3506  89.8582 15.16519642  5711
STARLINK-30310          
1 57733U 23131B   26060.41221983  .00000528  00000+0  54131-4 0  9991
2 57733  43.0026 216.3687 0001274 263.9291  96.1406 15.02536435138698
STARLINK-30365          
1 57734U 23131C   26060.44884443  .00000781  00000+0  72865-4 0  9996
2 57734  43.0006 216.6115 0000895 239.1185 120.9569 15.02532945138688
STARLINK-30371          
1 57735U 23131D   26060.49201746  .00000393  00000+0  44136-4 0  9990
2 57735  43.0036 216.1081 0001442 266.9718  93.0959 15.02536696138699
STARLINK-30352          
1 57736U 23131E   26060.48203071 -.00000176  00000+0  20553-5 0  9991
2 57736  43.0012 216.0319 0001696 279.2947  80.7703 15.02532513138693
STARLINK-30344          
1 57737U 23131F   26060.50422667  .00000094  00000+0  22027-4 0  9994
2 57737  43.0033 216.2079 0001469 266.0431  94.0243 15.02535812138694
STARLINK-30351          
1 57738U 23131G   26060.45884021 -.00000134  00000+0  51594-5 0  9993
2 57738  43.0029 216.7221 0001403 272.8359  87.2323 15.02539892138680
STARLINK-30242          
1 57739U 23131H   26060.50003471  .01721629  00000+0  64784-1 0  9992
2 57739  42.9999 189.8276 0001836 247.6061   6.3908 15.23459717  5814
