[{"OBJECT_NAME":"STARLINK-30318","OBJECT_ID":"2023-129P","EPOCH":"2026-03-01T12:00:02.998944","MEAN_MOTION":15.25816273,"ECCENTRICITY":0.0001691,"INCLINATION":43.0008,"RA_OF_ASC_NODE":163.7752,"ARG_OF_PERICENTER":304.3312,"MEAN_ANOMALY":82.6641,"EPHEMERIS_TYPE":0,"CLASSIFICATION_TYPE":"U","NORAD_CAT_ID":57711,"ELEMENT_SET_NO":999,"REV_AT_EPOCH":581,"BSTAR":0.041908,"MEAN_MOTION_DOT":0.01189978,"MEAN_MOTION_DDOT":0},{"OBJECT_NAME":"STARLINK-30348","OBJECT_ID":"2023-129Q","EPOCH":"2026-03-01T12:00:02.998944","MEAN_MOTION":15.18479559,"ECCENTRICITY":0.0001189,"INCLINATION":43.0018,"RA_OF_ASC_NODE":163.9245,"ARG_OF_PERICENTER":284.4225,"MEAN_ANOMALY":44.5441,"EPHEMERIS_TYPE":0,"CLASSIFICATION_TYPE":"U","NORAD_CAT_ID":57712,"ELEMENT_SET_NO":999,"REV_AT_EPOCH":581,"BSTAR":0.027825,"MEAN_MOTION_DOT":0.0062179,"MEAN_MOTION_DDOT":0},{"OBJECT_NAME":"STARLINK-30349","OBJECT_ID":"2023-129R","EPOCH":"2026-03-01T12:00:02.998944","MEAN_MOTION":15.18032464,"ECCENTRICITY":0.0001592,"INCLINATION":43.0005,"RA_OF_ASC_NODE":163.9652,"ARG_OF_PERICENTER":265.7084,"MEAN_ANOMALY":44.8698,"EPHEMERIS_TYPE":0,"CLASSIFICATION_TYPE":"U","NORAD_CAT_ID":57713,"ELEMENT_SET_NO":999,"REV_AT_EPOCH":581,"BSTAR":0.048346,"MEAN_MOTION_DOT":0.01084306,"MEAN_MOTION_DDOT":0},{"OBJECT_NAME":"STARLINK-30341","OBJECT_ID":"2023-129S","EPOCH":"2026-03-01T06:37:58.094112","MEAN_MOTION":15.03358561,"ECCENTRICITY":0.0001624,"INCLINATION":43.0026,"RA_OF_ASC_NODE":165.5954,"ARG_OF_PERICENTER":275.8438,"MEAN_ANOMALY":84.2219,"EPHEMERIS_TYPE":0,"CLASSIFICATION_TYPE":"U","NORAD_CAT_ID":57714,"ELEMENT_SET_NO":999,"REV_AT_EPOCH":13939,"BSTAR":7.0515e-5,"MEAN_MOTION_DOT":7.68e-6,"MEAN_MOTION_DDOT":0},{"OBJECT_NAME":"STARLINK-30300","OBJECT_ID":"2023-129T","EPOCH":"2026-03-01T12:00:02.998944","MEAN_MOTION":15.19323371,"ECCENTRICITY":0.0001802,"INCLINATION":43.0007,"RA_OF_ASC_NODE":163.9772,"ARG_OF_PERICENTER":271.0847,"MEAN_ANOMALY":35.0845,"EPHEMERIS_TYPE":0,"CLASSIFICATION_TYPE":"U","NORAD_CAT_ID":57715,"ELEMENT_SET_NO":999,"REV_AT_EPOCH":576,"BSTAR":0.046616,"MEAN_MOTION_DOT":0.01085111,"MEAN_MOTION_DDOT":0},{"OBJECT_NAME":"STARLINK-30281","OBJECT_ID":"2023-129U","EPOCH":"2026-03-01T12:00:02.998944","MEAN_MOTION":15.16095681,"ECCENTRICITY":0.000158,"INCLINATION":43.0005,"RA_OF_ASC_NODE":164.0357,"ARG_OF_PERICENTER":257.3279,"MEAN_ANOMALY":23.1831,"EPHEMERIS_TYPE":0,"CLASSIFICATION_TYPE":"U","NORAD_CAT_ID":57716,"ELEMENT_SET_NO":999,"REV_AT_EPOCH":572,"BSTAR":0.053498,"MEAN_MOTION_DOT":0.0114012,"MEAN_MOTION_DDOT":0},{"OBJECT_NAME":"STARLINK-30325","OBJECT_ID":"2023-129V","EPOCH":"2026-03-01T12:00:02.998944","MEAN_MOTION":15.18983041,"ECCENTRICITY":0.000197,"INCLINATION":42.9996,"RA_OF_ASC_NODE":164.0802,"ARG_OF_PERICENTER":244.6617,"MEAN_ANOMALY":15.9902,"EPHEMERIS_TYPE":0,"CLASSIFICATION_TYPE":"U","NORAD_CAT_ID":57717,"ELEMENT_SET_NO":999,"REV_AT_EPOCH":581,"BSTAR":0.055081,"MEAN_MOTION_DOT":0.01269007,"MEAN_MOTION_DDOT":0},{"OBJECT_NAME":"STARLINK-30338","OBJECT_ID":"2023-129W","EPOCH":"2026-03-01T12:00:02.998944","MEAN_MOTION":15.16919641,"ECCENTRICITY":0.0001266,"INCLINATION":42.9996,"RA_OF_ASC_NODE":164.0722,"ARG_OF_PERICENTER":259.9959,"MEAN_ANOMALY":3.5671,"EPHEMERIS_TYPE":0,"CLASSIFICATION_TYPE":"U","NORAD_CAT_ID":57718,"ELEMENT_SET_NO":999,"REV_AT_EPOCH":577,"BSTAR":0.058155,"MEAN_MOTION_DOT":0.01262482,"MEAN_MOTION_DDOT":0},{"OBJECT_NAME":"STARLINK-30334","OBJECT_ID":"2023-129X","EPOCH":"2026-03-01T12:00:02.998944","MEAN_MOTION":15.17552679,"ECCENTRICITY":0.0001666,"INCLINATION":43.0007,"RA_OF_ASC_NODE":163.9282,"ARG_OF_PERICENTER":246.2581,"MEAN_ANOMALY":77.1787,"EPHEMERIS_TYPE":0,"CLASSIFICATION_TYPE":"U","NORAD_CAT_ID":57719,"ELEMENT_SET_NO":999,"REV_AT_EPOCH":572,"BSTAR":0.0028625,"MEAN_MOTION_DOT":0.00058776,"MEAN_MOTION_DDOT":0},{"OBJECT_NAME":"STARLINK-30375","OBJECT_ID":"2023-131A","EPOCH":"2026-03-01T12:00:02.998944","MEAN_MOTION":15.16519642,"ECCENTRICITY":0.0001418,"INCLINATION":42.9999,"RA_OF_ASC_NODE":203.3817,"ARG_OF_PERICENTER":279.3506,"MEAN_ANOMALY":89.8582,"EPHEMERIS_TYPE":0,"CLASSIFICATION_TYPE":"U","NORAD_CAT_ID":57732,"ELEMENT_SET_NO":999,"REV_AT_EPOCH":571,"BSTAR":0.09506,"MEAN_MOTION_DOT":0.02070473,"MEAN_MOTION_DDOT":0},{"OBJECT_NAME":"STARLINK-30310","OBJECT_ID":"2023-131B","EPOCH":"2026-03-01T09:53:35.793312","MEAN_MOTION":15.02536435,"ECCENTRICITY":0.0001274,"INCLINATION":43.0026,"RA_OF_ASC_NODE":216.3687,"ARG_OF_PERICENTER":263.9291,"MEAN_ANOMALY":96.1406,"EPHEMERIS_TYPE":0,"CLASSIFICATION_TYPE":"U","NORAD_CAT_ID":57733,"ELEMENT_SET_NO":999,"REV_AT_EPOCH":13869,"BSTAR":5.4131e-5,"MEAN_MOTION_DOT":5.28e-6,"MEAN_MOTION_DDOT":0},{"OBJECT_NAME":"STARLINK-30365","OBJECT_ID":"2023-131C","EPOCH":"2026-03-01T10:46:20.158752","MEAN_MOTION":15.02532945,"ECCENTRICITY":8.95e-5,"INCLINATION":43.0006,"RA_OF_ASC_NODE":216.6115,"ARG_OF_PERICENTER":239.1185,"MEAN_ANOMALY":120.9569,"EPHEMERIS_TYPE":0,"CLASSIFICATION_TYPE":"U","NORAD_CAT_ID":57734,"ELEMENT_SET_NO":999,"REV_AT_EPOCH":13868,"BSTAR":7.2865e-5,"MEAN_MOTION_DOT":7.81e-6,"MEAN_MOTION_DDOT":0},{"OBJECT_NAME":"STARLINK-30371","OBJECT_ID":"2023-131D","EPOCH":"2026-03-01T11:48:30.308544","MEAN_MOTION":15.02536696,"ECCENTRICITY":0.0001442,"INCLINATION":43.0036,"RA_OF_ASC_NODE":216.1081,"ARG_OF_PERICENTER":266.9718,"MEAN_ANOMALY":93.0959,"EPHEMERIS_TYPE":0,"CLASSIFICATION_TYPE":"U","NORAD_CAT_ID":57735,"ELEMENT_SET_NO":999,"REV_AT_EPOCH":13869,"BSTAR":4.4136e-5,"MEAN_MOTION_DOT":3.93e-6,"MEAN_MOTION_DDOT":0},{"OBJECT_NAME":"STARLINK-30352","OBJECT_ID":"2023-131E","EPOCH":"2026-03-01T11:34:07.453344","MEAN_MOTION":15.02532513,"ECCENTRICITY":0.0001696,"INCLINATION":43.0012,"RA_OF_ASC_NODE":216.0319,"ARG_OF_PERICENTER":279.2947,"MEAN_ANOMALY":80.7703,"EPHEMERIS_TYPE":0,"CLASSIFICATION_TYPE":"U","NORAD_CAT_ID":57736,"ELEMENT_SET_NO":999,"REV_AT_EPOCH":13869,"BSTAR":2.0553e-6,"MEAN_MOTION_DOT":-1.76e-6,"MEAN_MOTION_DDOT":0},{"OBJECT_NAME":"STARLINK-30344","OBJECT_ID":"2023-131F","EPOCH":"2026-03-01T12:06:05.184288","MEAN_MOTION":15.02535812,"ECCENTRICITY":0.0001469,"INCLINATION":43.0033,"RA_OF_ASC_NODE":216.2079,"ARG_OF_PERICENTER":266.0431,"MEAN_ANOMALY":94.0243,"EPHEMERIS_TYPE":0,"CLASSIFICATION_TYPE":"U","NORAD_CAT_ID":57737,"ELEMENT_SET_NO":999,"REV_AT_EPOCH":13869,"BSTAR":2.2027e-5,"MEAN_MOTION_DOT":9.4e-7,"MEAN_MOTION_DDOT":0},{"OBJECT_NAME":"STARLINK-30351","OBJECT_ID":"2023-131G","EPOCH":"2026-03-01T11:00:43.794144","MEAN_MOTION":15.02539892,"ECCENTRICITY":0.0001403,"INCLINATION":43.0029,"RA_OF_ASC_NODE":216.7221,"ARG_OF_PERICENTER":272.8359,"MEAN_ANOMALY":87.2323,"EPHEMERIS_TYPE":0,"CLASSIFICATION_TYPE":"U","NORAD_CAT_ID":57738,"ELEMENT_SET_NO":999,"REV_AT_EPOCH":13868,"BSTAR":5.1594e-6,"MEAN_MOTION_DOT":-1.34e-6,"MEAN_MOTION_DDOT":0},{"OBJECT_NAME":"STARLINK-30242","OBJECT_ID":"2023-131H","EPOCH":"2026-03-01T12:00:02.998944","MEAN_MOTION":15.23459717,"ECCENTRICITY":0.0001836,"INCLINATION":42.9999,"RA_OF_ASC_NODE":189.8276,"ARG_OF_PERICENTER":247.6061,"MEAN_ANOMALY":6.3908,"EPHEMERIS_TYPE":0,"CLASSIFICATION_TYPE":"U","NORAD_CAT_ID":57739,"ELEMENT_SET_NO":999,"REV_AT_EPOCH":581,"BSTAR":0.064784,"MEAN_MOTION_DOT":0.01721629,"MEAN_MOTION_DDOT":0}]
